SL-16 R/B               
1 25861U 99039B   19143.03475249 -.00000002  00000-0  72929-5 0  9991
2 25861  98.1877 132.9283 0015164 339.9476  60.9292 14.78530805 69925
DELTA 2 R/B             
1 25876U 99041E   19142.88584882 -.00000166  00000-0  11032-4 0  9994
2 25876  51.7694  55.9815 0530315 282.3612  71.8466 14.04329344 13602
HELIOS 1B               
1 25977U 99064A   19142.46979133  .00000011  00000-0  83515-5 0  9996
2 25977  98.2275 279.9826 0002088 128.9539 231.1860 14.82418288317045
TERRA                   
1 25994U 99068A   19143.37237984  .00000070  00000-0  25542-4 0  9991
2 25994  98.2051 218.2983 0001430 100.8682 259.2676 14.57115579 33369
SL-16 R/B               
1 26070U 00006B   19143.36454401 -.00000366  00000-0 -16278-3 0  9990
2 26070  71.0011 275.0723 0016694 351.5283   8.5556 14.15450504997256
TITAN 4B R/B            
1 26474U 00047B   19143.16673688  .00000010  00000-0  11904-4 0  9997
2 26474  67.9946  72.6209 0060957 268.1249  91.2912 14.95823521 20805
ENVISAT                 
1 27386U 02009A   19143.01731306 -.00000016  00000-0  81344-5 0  9999
2 27386  98.1509 165.4054 0001313  89.6107 327.5675 14.37948916902361
IDEFIX & ARIANE 42P R/B 
1 27422U 02021B   19142.49441260 -.00000026  00000-0  58799-5 0  9991
2 27422  98.2982 116.0626 0011337 314.9183  45.1079 14.29271887887281
AQUA                    
1 27424U 02022A   19143.41275159  .00000045  00000-0  20128-4 0  9993
2 27424  98.2018  84.6569 0002900 108.3914   2.0689 14.57122015906978
CZ-4B R/B               
1 27432U 02024C   19143.05258192 -.00000028  00000-0  91738-5 0  9990
2 27432  99.0686 133.9941 0050093 199.6233 202.4784 14.14079428878413
MIDORI II (ADEOS-II)    
1 27597U 02056A   19142.90857745  .00000024  00000-0  27086-4 0  9998
2 27597  98.4703  96.5186 0002175  73.7397 286.4023 14.27398274855953
H-2A R/B                
1 27601U 02056E   19142.81164201  .00000023  00000-0  23264-4 0  9995
2 27601  98.2775 192.5557 0072127   4.3268 125.8990 14.31892499858647
CZ-4B R/B               
1 28059U 03049C   19142.85956850  .00000016  00000-0  15763-4 0  9996
2 28059  98.4967  49.8366 0048941 255.3753 104.2012 14.52562280825966
CZ-2C R/B               
1 28222U 04012C   19143.41063760  .00000118  00000-0  11246-4 0  9996
2 28222  97.6240 101.4466 0045930 289.6672 182.7778 15.10073578827014
SL-16 R/B               
1 28353U 04021B   19143.13435813 -.00000304  00000-0 -13416-3 0  9991
2 28353  71.0008  40.0336 0006672 226.6648 133.3919 14.14217451771824
CZ-4B R/B               
1 28415U 04035C   19142.68999955 -.00000315  00000-0 -16162-4 0  9990
2 28415  97.6636 182.2812 0050246 246.0888 113.5071 15.06681040804647
CZ-2C R/B               
1 28480U 04046B   19143.29398712  .00000016  00000-0  21773-4 0  9996
2 28480  98.1320 202.3265 0140785 302.6934  98.1829 14.25698595754703
ARIANE 5 R/B            
1 28499U 04049H   19143.38888851  .00000019  00000-0  95835-5 0  9991
2 28499  98.0497 239.0856 0093650  97.2145 306.1916 14.79965804778297
CZ-2D R/B               
1 28738U 05024B   19143.17241293  .00000321  00000-0  22422-4 0  9998
2 28738  97.4167 172.9125 0013795  94.8066 265.4740 15.11799320762303
SUZAKU (ASTRO-EII)      
1 28773U 05025A   19142.86162130  .00000646  00000-0  27490-4 0  9995
2 28773  31.3836  41.8862 0004715 228.9820 131.0420 15.17059771764438
ALOS (DAICHI)           
1 28931U 06002A   19143.04435884  .00000095  00000-0  27234-4 0  9991
2 28931  97.8188 143.7102 0000526  31.6212 328.5029 14.62608379710487
H-2A R/B                
1 28932U 06002B   19143.01243213  .00000050  00000-0  11016-4 0  9994
2 28932  98.2786 107.1372 0089399 161.6198 241.2484 14.91971131722886
AKARI (ASTRO-F)         
1 28939U 06005A   19142.88928080  .00001167  00000-0  35302-4 0  9994
2 28939  98.1918  68.9412 0096135 252.6978 106.3726 15.32455538720894
RESURS-DK 1             
1 29228U 06021A   19143.35299511  .00000032  00000-0  98174-5 0  9994
2 29228  69.9350 103.5544 0006360 313.1742  46.8887 15.02437403714007
GENESIS 1               
1 29252U 06029A   19143.33113519  .00000314  00000-0  25448-4 0  9996
2 29252  64.5054 140.6358 0050338 242.0435 117.5588 15.17711880708810
CZ-4B R/B               
1 29507U 06046C   19143.11231377  .00000109  00000-0  13397-4 0  9999
2 29507  97.7589 160.8729 0052162  39.9508 320.5535 15.00389568686731
CZ-2C R/B               
1 31114U 07010B   19143.18632286 -.00000034  00000-0  31828-5 0  9997
2 31114  98.3146  16.1938 0059119 327.8320  31.9256 14.19293515627518
COSMO-SKYMED 1          
1 31598U 07023A   19143.32165174 -.00000340  00000-0 -36152-4 0  9995
2 31598  97.8912 327.0704 0001644  88.9127 271.2278 14.82151543646893
GENESIS 2               
1 31789U 07028A   19142.60578702 -.00000019  00000-0  97025-5 0  9996
2 31789  64.5028 183.6536 0046960 291.5914  68.0208 15.16918697655736
COSMOS 2428             
1 31792U 07029A   19143.06362783 -.00000312  00000-0 -14272-3 0  9990
2 31792  70.9489  14.2997 0010121 299.0133  60.9973 14.12492776613596
SL-16 R/B               
1 31793U 07029B   19143.06671212  .00000289  00000-0  17582-3 0  9999
2 31793  70.9760 348.5155 0001813 254.3670 276.1182 14.14415442614384
KORONAS-FOTON           
1 33504U 09003A   19142.83577912  .00000474  00000-0  23286-4 0  9996
2 33504  82.4434 252.4014 0018961 189.1035 170.9857 15.15405760568170
H-2A R/B                
1 38341U 12025E   19142.96194851  .00000064  00000-0  14966-4 0  9999
2 38341  98.4466 268.9805 0056589  51.5215 309.1054 14.83886990379397
CUSAT 2 & FALCON 9 R/B  
1 39271U 13055G   19142.90569541  .00001666  00000-0  41154-4 0  9990
2 39271  80.9661 327.0276 0601428 264.6823  88.5510 14.44665298294138
SL-4 R/B                
1 39679U 14021B   19143.18993625  .00000125  00000-0  24617-4 0  9995
2 39679  51.6149 122.6658 0173126  30.4182 330.6696 15.06070458280379
ALOS-2                  
1 39766U 14029A   19143.32270378 -.00000323  00000-0 -36414-4 0  9999
2 39766  97.9201 240.5231 0001429  89.9574 270.1823 14.79468010269860
SL-27 R/B               
1 40354U 14084B   19142.83284229  .00000472  00000-0  13020-4 0  9991
2 40354  74.7371 117.9192 0037365 146.8608 213.4956 15.39671944247859
ASTRO-H (HITOMI)        
1 41337U 16012A   19142.95749388  .00000208  00000-0  99627-5 0  9996
2 41337  31.0063 331.8082 0012402 163.3201 196.7844 14.98581081178722
TIANGONG-2              
1 41765U 16057A   19143.31836058  .00002745  00000-0  35496-4 0  9993
2 41765  42.7822 115.1888 0006361  88.9444  55.4615 15.61573307153154
SHENZHOU-11 MODULE      
1 41868U 16061G   19142.85264510  .00010921  00000-0  60194-4 0  9996
2 41868  42.7953  43.0154 0006885 235.7835 167.1282 15.79723437143863
SAOCOM 1A               
1 43641U 18076A   19143.32994344  .00000004  00000-0  70200-5 0  9994
2 43641  97.8895 330.0566 0001507  79.6451 280.4919 14.82151545 33661
